{
  "norad_id": 45671,
  "name": "STARLINK-1454",
  "history": [
    {
      "epoch": "2026-03-28T22:17:23.210304",
      "apogee_km": 407.59976214669314,
      "perigee_km": 397.98847038250096,
      "latitude_deg": 46.75731722502236,
      "longitude_deg": -83.74087743996643,
      "semi_major_axis_km": 6780.931116264597,
      "eccentricity": 0.0007087,
      "inclination_deg": 53.0498,
      "raan_deg": 320.1268,
      "arg_perigee_deg": 139.8553,
      "mean_anomaly_deg": 220.2982,
      "mean_motion_rev_day": 15.54779347
    }
  ]
}